NORAD_CAT_ID,OBJECT_NAME,OBJECT_TYPE,EPOCH,MEAN_MOTION,ECCENTRICITY,INCLINATION,RA_OF_ASC_NODE,ARG_OF_PERICENTER,MEAN_ANOMALY,BSTAR,MEAN_MOTION_DOT,MEAN_MOTION_DDOT,TLE_LINE0,TLE_LINE1,TLE_LINE2,SEMIMAJOR_AXIS,PERIOD,APOGEE,PERIGEE,DECAYED
49739.0,STARLINK-3155,PAYLOAD,2022-03-23 22:00:00,15.08870623,0.0001949,53.2075,173.9659,37.1662,358.8523,-0.0042858,-0.00067913,0.0,0 STARLINK-3155,1 49739U 21115R   22082.91667824 -.00067913  00000-0 -42858-2 0  9996,2 49739  53.2075 173.9659 0001949  37.1662 358.8523 15.08870623  3618,6917.7869999999975,95.436,541.0,538.304,0.0
49739.0,STARLINK-3155,PAYLOAD,2022-03-24 14:00:01,15.08840835,0.0002055,53.2078,170.9735,36.2143,23.0041,4.405e-05,4.13e-06,0.0,0 STARLINK-3155,1 49739U 21115R   22083.58334491  .00000413  00000-0  44050-4 0  9999,2 49739  53.2078 170.9735 0002055  36.2143  23.0041 15.08840835  3580,6917.878000000002,95.438,541.164,538.321,0.0
49739.0,STARLINK-3155,PAYLOAD,2022-03-24 22:00:00,15.08853043,0.0001941,53.2079,169.4757,34.4885,36.3313,-0.0029053,-0.00046247,0.0,0 STARLINK-3155,1 49739U 21115R   22083.91667824 -.00046247  00000-0 -29053-2 0  9996,2 49739  53.2079 169.4757 0001941  34.4885  36.3313 15.08853043  3601,6917.840999999999,95.437,541.048,538.363,0.0
49739.0,STARLINK-3155,PAYLOAD,2022-03-25 00:00:02,15.08825939,0.0001841,53.208,169.101,34.3213,129.4689,0.00037272,5.647e-05,0.0,0 STARLINK-3155,1 49739U 21115R   22084.00002315  .00005647  00000-0  37272-3 0  9995,2 49739  53.2080 169.1010 0001841  34.3213 129.4689 15.08825939 18244,6917.9230000000025,95.438,541.062,538.515,0.0
49739.0,STARLINK-3155,PAYLOAD,2022-03-25 14:00:01,15.08835566,0.0002078,53.2084,166.4835,33.3929,60.6126,0.00043684,6.670000000000001e-05,0.0,0 STARLINK-3155,1 49739U 21115R   22084.58334491  .00006670  00000-0  43684-3 0  9992,2 49739  53.2084 166.4835 0002078  33.3929  60.6126 15.08835566  3590,6917.894,95.438,541.196,538.321,0.0
49739.0,STARLINK-3155,PAYLOAD,2022-03-25 22:00:01,15.08845397,0.0001937,53.2086,164.9856,32.3013,73.3627,-0.0026245,-0.00041822,0.0,0 STARLINK-3155,1 49739U 21115R   22084.91668981 -.00041822  00000-0 -26245-2 0  9996,2 49739  53.2086 164.9856 0001937  32.3013  73.3627 15.08845397  3640,6917.864000000001,95.437,541.069,538.389,0.0
49739.0,STARLINK-3155,PAYLOAD,2022-03-26 06:00:00,15.08835873,0.0001863,53.2089,163.4884,35.3342,81.8552,0.00085539,0.0001335,0.0,0 STARLINK-3155,1 49739U 21115R   22085.25001157  .00013350  00000-0  85539-3 0  9995,2 49739  53.2089 163.4884 0001863  35.3342  81.8552 15.08835873 18436,6917.893,95.438,541.047,538.469,0.0
49739.0,STARLINK-3155,PAYLOAD,2022-03-26 14:00:01,15.08829258,0.0002097,53.209,161.9936,31.9187,96.8668,0.0013556,0.00021346,0.0,0 STARLINK-3155,1 49739U 21115R   22085.58334491  .00021346  00000-0  13556-2 0  9994,2 49739  53.2090 161.9936 0002097  31.9187  96.8668 15.08829258  3560,6917.913000000001,95.438,541.229,538.328,0.0
49739.0,STARLINK-3155,PAYLOAD,2022-03-26 22:00:00,15.08848299,0.0001992,53.209,160.4958,34.4593,105.9203,-0.0026124,-0.00041635,0.0,0 STARLINK-3155,1 49739U 21115R   22085.91667824 -.00041635  00000-0 -26124-2 0  9990,2 49739  53.2090 160.4958 0001992  34.4593 105.9203 15.08848299 18536,6917.855,95.437,541.0980000000002,538.342,0.0
49739.0,STARLINK-3155,PAYLOAD,2022-03-27 14:00:01,15.08821185,0.0002182,53.2094,157.504,34.3013,129.2593,0.0024569,0.00039011,0.0,0 STARLINK-3155,1 49739U 21115R   22086.58334491  .00039011  00000-0  24569-2 0  9999,2 49739  53.2094 157.5040 0002182  34.3013 129.2593 15.08821185 18634,6917.938,95.439,541.312,538.293,0.0
49739.0,STARLINK-3155,PAYLOAD,2022-03-27 22:00:01,15.08845188,0.0002066,53.2095,156.0059,38.1996,137.0217,-0.0019972,-0.00031939,0.0,0 STARLINK-3155,1 49739U 21115R   22086.91668981 -.00031939  00000-0 -19972-2 0  9995,2 49739  53.2095 156.0059 0002066  38.1996 137.0217 15.08845188  3567,6917.865,95.437,541.159,538.3,0.0
49739.0,STARLINK-3155,PAYLOAD,2022-03-28 06:00:00,15.08908814,0.0002003,53.2133,154.4927,40.738,146.0024,-0.013667,-0.00211876,0.0,0 STARLINK-3155,1 49739U 21115R   22087.25001157 -.00211876  00000-0 -13667-1 0  9993,2 49739  53.2133 154.4927 0002003  40.7380 146.0024 15.08908814 18730,6917.67,95.433,540.9209999999998,538.149,0.0
49739.0,STARLINK-3155,PAYLOAD,2022-03-28 14:00:01,15.08836636,0.0002232,53.2092,153.0143,36.9134,161.4972,-3.7843e-05,-8.91e-06,0.0,0 STARLINK-3155,1 49739U 21115R   22087.58335648 -.00000891  00000-0 -37843-4 0  9992,2 49739  53.2092 153.0143 0002232  36.9134 161.4972 15.08836636  3567,6917.891,95.438,541.3,538.212,0.0
49739.0,STARLINK-3155,PAYLOAD,2022-03-28 22:00:00,15.08824344,0.0002015,53.209,151.5162,37.7769,172.1653,9.9976e-05,1.303e-05,0.0,0 STARLINK-3155,1 49739U 21115R   22087.91667824  .00001303  00000-0  99976-4 0  9995,2 49739  53.2090 151.5162 0002015  37.7769 172.1653 15.08824344 18835,6917.928000000001,95.439,541.187,538.399,0.0
49739.0,STARLINK-3155,PAYLOAD,2022-03-29 14:00:01,15.08823724,0.0002182,53.2087,148.5248,35.2674,197.851,0.00046707,7.15e-05,0.0,0 STARLINK-3155,1 49739U 21115R   22088.58334491  .00007150  00000-0  46707-3 0  9999,2 49739  53.2087 148.5248 0002182  35.2674 197.8510 15.08823724  3566,6917.93,95.439,541.305,538.286,0.0
49739.0,STARLINK-3155,PAYLOAD,2022-03-29 22:00:00,15.08820366,0.000199,53.2085,147.0265,36.6427,208.0595,0.00074726,0.00011618,0.0,0 STARLINK-3155,1 49739U 21115R   22088.91667824  .00011618  00000-0  74726-3 0  9991,2 49739  53.2085 147.0265 0001990  36.6427 208.0595 15.08820366  3561,6917.94,95.439,541.182,538.429,0.0
49739.0,STARLINK-3155,PAYLOAD,2022-03-30 02:00:01,15.08809805,0.0001955,53.2082,146.2777,39.3661,31.1275,0.0032903,0.00052424,0.0,0 STARLINK-3155,1 49739U 21115R   22089.08334491  .00052424  00000-0  32903-2 0  9991,2 49739  53.2082 146.2777 0001955  39.3661  31.1275 15.08809805 19010,6917.973000000001,95.439,541.19,538.485,0.0
49739.0,STARLINK-3155,PAYLOAD,2022-03-30 12:00:00,15.08828622,0.0002197,53.2083,144.409,36.0699,138.9051,0.0014927,0.00023541,0.0,0 STARLINK-3155,1 49739U 21115R   22089.50001157  .00023541  00000-0  14927-2 0  9992,2 49739  53.2083 144.4090 0002197  36.0699 138.9051 15.08828622 19075,6917.915,95.438,541.3,538.26,0.0
49739.0,STARLINK-3155,PAYLOAD,2022-03-30 14:00:01,15.08821207,0.0002212,53.2081,144.0349,35.0219,232.9161,0.0028472,0.00045294,0.0,0 STARLINK-3155,1 49739U 21115R   22089.58335648  .00045294  00000-0  28472-2 0  9994,2 49739  53.2081 144.0349 0002212  35.0219 232.9161 15.08821207  3567,6917.938,95.439,541.3330000000002,538.273,0.0
49739.0,STARLINK-3155,PAYLOAD,2022-03-30 22:00:00,15.08834828,0.0002028,53.208,142.5365,36.1414,243.3335,-0.00068878,-0.00011232,0.0,0 STARLINK-3155,1 49739U 21115R   22089.91667824 -.00011232  00000-0 -68878-3 0  9997,2 49739  53.2080 142.5365 0002028  36.1414 243.3335 15.08834828  3619,6917.896,95.438,541.164,538.3580000000002,0.0
49739.0,STARLINK-3155,PAYLOAD,2022-03-31 06:00:00,15.08848108,0.0002056,53.2079,141.0401,37.7547,253.3023,-0.00066515,-0.00010861,0.0,0 STARLINK-3155,1 49739U 21115R   22090.25001157 -.00010861  00000-0 -66515-3 0  9990,2 49739  53.2079 141.0401 0002056  37.7547 253.3023 15.08848108 19198,6917.856,95.437,541.143,538.298,0.0
49739.0,STARLINK-3155,PAYLOAD,2022-03-31 14:00:01,15.08827893,0.0002237,53.208,139.5449,33.1508,269.5065,0.0018897,0.00029905,0.0,0 STARLINK-3155,1 49739U 21115R   22090.58334491  .00029905  00000-0  18897-2 0  9992,2 49739  53.2080 139.5449 0002237  33.1508 269.5065 15.08827893  3592,6917.917,95.438,541.33,538.235,0.0
49739.0,STARLINK-3155,PAYLOAD,2022-03-31 22:00:00,15.08829069,0.0002056,53.2082,138.0462,34.851,279.4269,0.0014981,0.00023628,0.0,0 STARLINK-3155,1 49739U 21115R   22090.91667824  .00023628  00000-0  14981-2 0  9994,2 49739  53.2082 138.0462 0002056  34.8510 279.4269 15.08829069  3563,6917.9140000000025,95.438,541.201,538.356,0.0
49739.0,STARLINK-3155,PAYLOAD,2022-04-01 08:00:01,15.0886625,0.0002185,53.2084,136.1763,34.4974,24.2691,-0.0016354,-0.00026241,0.0,0 STARLINK-3155,1 49739U 21115R   22091.33334491 -.00026241  00000-0 -16354-2 0  9994,2 49739  53.2084 136.1763 0002185  34.4974  24.2691 15.08866250 19353,6917.8,95.436,541.177,538.154,0.0
49739.0,STARLINK-3155,PAYLOAD,2022-04-01 14:00:01,15.08849153,0.0002285,53.2084,135.0544,31.6796,305.8029,-0.00059963,-9.822e-05,0.0,0 STARLINK-3155,1 49739U 21115R   22091.58334491 -.00009822  00000-0 -59963-3 0  9991,2 49739  53.2084 135.0544 0002285  31.6796 305.8029 15.08849153  3595,6917.852,95.437,541.298,538.137,0.0
49739.0,STARLINK-3155,PAYLOAD,2022-04-01 22:00:00,15.08809941,0.0002146,53.2085,133.5558,36.2673,312.8326,0.0013052,0.00020528,0.0,0 STARLINK-3155,1 49739U 21115R   22091.91667824  .00020528  00000-0  13052-2 0  9999,2 49739  53.2085 133.5558 0002146  36.2673 312.8326 15.08809941  3572,6917.972,95.439,541.322,538.3530000000002,0.0
49739.0,STARLINK-3155,PAYLOAD,2022-04-02 14:00:01,15.08829241,0.0002383,53.2085,130.564,33.6962,338.6226,0.0015556,0.00024549,0.0,0 STARLINK-3155,1 49739U 21115R   22092.58335648  .00024549  00000-0  15556-2 0  9997,2 49739  53.2085 130.5640 0002383  33.6962 338.6226 15.08829241 19540,6917.913000000001,95.438,541.427,538.13,0.0
49739.0,STARLINK-3155,PAYLOAD,2022-04-02 22:00:01,15.08821331,0.0002119,53.2087,129.0655,35.4861,348.441,-0.00070885,-0.00011546,0.0,0 STARLINK-3155,1 49739U 21115R   22092.91668981 -.00011546  00000-0 -70885-3 0  9995,2 49739  53.2087 129.0655 0002119  35.4861 348.4410 15.08821331  3602,6917.937,95.439,541.268,538.337,0.0
49739.0,STARLINK-3155,PAYLOAD,2022-04-03 06:00:00,15.08820211,0.0002185,53.2089,127.5696,34.2001,1.2202,-0.0011812,-0.00019028,0.0,0 STARLINK-3155,1 49739U 21115R   22093.25001157 -.00019028  00000-0 -11812-2 0  9996,2 49739  53.2089 127.5696 0002185  34.2001   1.2202 15.08820211 19648,6917.941,95.439,541.317,538.294,0.0
